NORAD_CAT_ID,OBJECT_NAME,OBJECT_TYPE,EPOCH,MEAN_MOTION,ECCENTRICITY,INCLINATION,RA_OF_ASC_NODE,ARG_OF_PERICENTER,MEAN_ANOMALY,BSTAR,MEAN_MOTION_DOT,MEAN_MOTION_DDOT,TLE_LINE0,TLE_LINE1,TLE_LINE2,SEMIMAJOR_AXIS,PERIOD,APOGEE,PERIGEE,DECAYED
52602.0,STARLINK-4012,PAYLOAD,2023-04-09 23:40:33,15.08841234,0.000124,53.2183,18.763,87.2023,272.9111,0.00012318,1.673e-05,0.0,0 STARLINK-4012,1 52602U 22052E   23099.98649712  .00001673  00000-0  12318-3 0  9990,2 52602  53.2183  18.7630 0001240  87.2023 272.9111 15.08841234 50490,6917.877,95.437,540.599,538.884,0.0
52602.0,STARLINK-4012,PAYLOAD,2023-04-10 01:15:56,15.08845578,0.0001267,53.2183,18.4653,90.2965,269.8172,8.0737e-05,9.97e-06,0.0,0 STARLINK-4012,1 52602U 22052E   23100.05273529  .00000997  00000-0  80737-4 0  9999,2 52602  53.2183  18.4653 0001267  90.2965 269.8172 15.08845578 50936,6917.863,95.437,540.605,538.852,0.0
52602.0,STARLINK-4012,PAYLOAD,2023-04-11 04:17:29,15.08858908,0.0001422,53.2181,13.4097,107.4217,252.6931,0.00050016,7.685e-05,0.0,0 STARLINK-4012,1 52602U 22052E   23101.17880821  .00007685  00000-0  50016-3 0  9999,2 52602  53.2181  13.4097 0001422 107.4217 252.6931 15.08858908 50670,6917.823,95.436,540.671,538.704,0.0
52602.0,STARLINK-4012,PAYLOAD,2023-04-11 17:00:35,15.08834768,0.0001904,53.2176,11.0328,85.8109,274.3101,-4.1101e-05,-9.42e-06,0.0,0 STARLINK-4012,1 52602U 22052E   23101.70874007 -.00000942  00000-0 -41101-4 0  9994,2 52602  53.2176  11.0328 0001904  85.8109 274.3101 15.08834768 50756,6917.896,95.438,541.079,538.444,0.0
52602.0,STARLINK-4012,PAYLOAD,2023-04-12 02:32:54,15.08825781,0.0001261,53.2174,9.2464,102.729,257.3843,-0.00015346,-2.728e-05,0.0,0 STARLINK-4012,1 52602U 22052E   23102.10618444 -.00002728  00000-0 -15346-3 0  9995,2 52602  53.2174   9.2464 0001261 102.7290 257.3843 15.08825781 50816,6917.924,95.438,540.661,538.917,0.0
52602.0,STARLINK-4012,PAYLOAD,2023-04-13 03:59:04,15.08857316,0.0001072,53.2167,4.4878,93.6763,266.4352,0.00093968,0.00014706,0.0,0 STARLINK-4012,1 52602U 22052E   23103.16602230  .00014706  00000-0  93968-3 0  9991,2 52602  53.2167   4.4878 0001072  93.6763 266.4352 15.08857316 51408,6917.827,95.436,540.434,538.951,0.0
52602.0,STARLINK-4012,PAYLOAD,2023-04-14 02:14:27,15.08867188,0.0001081,53.2159,0.3239,110.9571,249.1537,0.00090024,0.00014079,0.0,0 STARLINK-4012,1 52602U 22052E   23104.09337552  .00014079  00000-0  90024-3 0  9999,2 52602  53.2159   0.3239 0001081 110.9571 249.1537 15.08867188 51114,6917.797,95.436,540.41,538.914,0.0
52602.0,STARLINK-4012,PAYLOAD,2023-04-14 16:32:56,15.08845424,0.0001227,53.2171,357.6464,118.7815,241.3301,0.0003806,5.775e-05,0.0,0 STARLINK-4012,1 52602U 22052E   23104.68953836  .00005775  00000-0  38060-3 0  9998,2 52602  53.2171 357.6464 0001227 118.7815 241.3301 15.08845424 51207,6917.864,95.437,540.578,538.88,0.0
52602.0,STARLINK-4012,PAYLOAD,2023-04-15 02:05:14,15.08857107,0.0001241,53.2169,355.8638,103.7536,256.3594,0.0010619,0.0001666,0.0,0 STARLINK-4012,1 52602U 22052E   23105.08697715  .00016660  00000-0  10619-2 0  9998,2 52602  53.2169 355.8638 0001241 103.7536 256.3594 15.08857107 51264,6917.828,95.436,540.552,538.835,0.0
52602.0,STARLINK-4012,PAYLOAD,2023-04-15 21:09:53,15.08840085,0.0001236,53.2174,352.295,103.2753,256.8377,0.00099346,0.00015558,0.0,0 STARLINK-4012,1 52602U 22052E   23105.88186576  .00015558  00000-0  99346-3 0  9994,2 52602  53.2174 352.2950 0001236 103.2753 256.8377 15.08840085 51810,6917.88,95.438,540.6,538.89,0.0
52602.0,STARLINK-4012,PAYLOAD,2023-04-15 22:45:16,15.08841804,0.0001254,53.217,351.9981,88.1226,271.991,0.00093463,0.00014619,0.0,0 STARLINK-4012,1 52602U 22052E   23105.94810649  .00014619  00000-0  93463-3 0  9997,2 52602  53.2170 351.9981 0001254  88.1226 271.9910 15.08841804 51396,6917.875,95.437,540.607,538.872,0.0
52602.0,STARLINK-4012,PAYLOAD,2023-04-16 21:00:40,15.08841545,0.0001208,53.2173,347.8367,82.5227,277.5902,0.00044563,6.812e-05,0.0,0 STARLINK-4012,1 52602U 22052E   23106.87546993  .00006812  00000-0  44563-3 0  9991,2 52602  53.2173 347.8367 0001208  82.5227 277.5902 15.08841545 51967,6917.876,95.437,540.576,538.905,0.0
52602.0,STARLINK-4012,PAYLOAD,2023-04-16 22:36:03,15.08844088,0.0001219,53.2177,347.5397,82.4572,277.6559,0.0005061,7.777e-05,0.0,0 STARLINK-4012,1 52602U 22052E   23106.94170944  .00007777  00000-0  50610-3 0  9999,2 52602  53.2177 347.5397 0001219  82.4572 277.6559 15.08844088 51970,6917.868,95.437,540.576,538.89,0.0
52602.0,STARLINK-4012,PAYLOAD,2023-04-17 20:51:27,15.08844096,0.0001229,53.218,343.3777,78.4388,281.6742,0.0002334,3.429e-05,0.0,0 STARLINK-4012,1 52602U 22052E   23107.86906937  .00003429  00000-0  23340-3 0  9990,2 52602  53.2180 343.3777 0001229  78.4388 281.6742 15.08844096 52116,6917.868,95.437,540.583,538.883,0.0
52602.0,STARLINK-4012,PAYLOAD,2023-04-17 22:26:50,15.08846475,0.0001238,53.2179,343.0794,78.0898,282.0233,0.00025497,3.773e-05,0.0,0 STARLINK-4012,1 52602U 22052E   23107.93530822  .00003773  00000-0  25497-3 0  9991,2 52602  53.2179 343.0794 0001238  78.0898 282.0233 15.08846475 52126,6917.861,95.437,540.582,538.869,0.0
52602.0,STARLINK-4012,PAYLOAD,2023-04-18 15:56:06,15.08823593,0.0001519,53.2183,339.8118,75.9236,284.1925,0.00077325,0.00012034,0.0,0 STARLINK-4012,1 52602U 22052E   23108.66395964  .00012034  00000-0  77325-3 0  9995,2 52602  53.2183 339.8118 0001519  75.9236 284.1925 15.08823593 51809,6917.931,95.439,540.846,538.745,0.0
52602.0,STARLINK-4012,PAYLOAD,2023-04-18 17:31:28,15.08835767,0.0001162,53.2165,339.5107,83.9225,276.1899,4.6962e-05,4.6e-06,0.0,0 STARLINK-4012,1 52602U 22052E   23108.73019247  .00000460  00000-0  46962-4 0  9994,2 52602  53.2165 339.5107 0001162  83.9225 276.1899 15.08835767 52241,6917.893,95.438,540.562,538.954,0.0
52602.0,STARLINK-4012,PAYLOAD,2023-04-18 22:17:37,15.08847533,9.31e-05,53.2154,338.6215,94.4324,265.6775,8.1282e-05,1.006e-05,0.0,0 STARLINK-4012,1 52602U 22052E   23108.92890485  .00001006  00000-0  81282-4 0  9997,2 52602  53.2154 338.6215 0000931  94.4324 265.6775 15.08847533 51844,6917.857,95.437,540.366,539.078,0.0
52602.0,STARLINK-4012,PAYLOAD,2023-04-19 14:11:29,15.08838517,0.0001061,53.2158,335.647,96.7697,263.3416,4.4953e-05,4.28e-06,0.0,0 STARLINK-4012,1 52602U 22052E   23109.59131026  .00000428  00000-0  44953-4 0  9991,2 52602  53.2158 335.6470 0001061  96.7697 263.3416 15.08838517 52379,6917.885,95.438,540.484,539.016,0.0
52602.0,STARLINK-4012,PAYLOAD,2023-04-19 22:08:24,15.08842363,0.0001022,53.2168,334.1604,98.225,261.8858,7.8621e-05,9.64e-06,0.0,0 STARLINK-4012,1 52602U 22052E   23109.92250860  .00000964  00000-0  78621-4 0  9990,2 52602  53.2168 334.1604 0001022  98.2250 261.8858 15.08842363 52425,6917.873,95.437,540.445,539.031,0.0
52602.0,STARLINK-4012,PAYLOAD,2023-04-21 01:09:58,15.08841772,9.69e-05,53.2158,329.1021,107.3861,252.7237,6.2775e-05,7.12e-06,0.0,0 STARLINK-4012,1 52602U 22052E   23111.04859239  .00000712  00000-0  62775-4 0  9995,2 52602  53.2158 329.1021 0000969 107.3861 252.7237 15.08841772 52591,6917.875,95.437,540.41,539.07,0.0
52602.0,STARLINK-4012,PAYLOAD,2023-04-22 13:43:50,15.08842973,0.0001279,53.2145,322.2654,73.922,286.1913,0.0001358,1.874e-05,0.0,0 STARLINK-4012,1 52602U 22052E   23112.57211220  .00001874  00000-0  13580-3 0  9995,2 52602  53.2145 322.2654 0001279  73.9220 286.1913 15.08842973 52399,6917.871,95.437,540.621,538.852,0.0
52602.0,STARLINK-4012,PAYLOAD,2023-04-22 20:05:22,15.08843637,0.0001195,53.2157,321.0756,80.3479,279.7649,0.00011252,1.504e-05,0.0,0 STARLINK-4012,1 52602U 22052E   23112.83707168  .00001504  00000-0  11252-3 0  9999,2 52602  53.2157 321.0756 0001195  80.3479 279.7649 15.08843637 52861,6917.869,95.437,540.561,538.908,0.0
52602.0,STARLINK-4012,PAYLOAD,2023-04-23 13:34:37,15.08840037,9e-05,53.2164,317.8024,92.2095,267.9,5.1912e-05,5.39e-06,0.0,0 STARLINK-4012,1 52602U 22052E   23113.56571471  .00000539  00000-0  51912-4 0  9991,2 52602  53.2164 317.8024 0000900  92.2095 267.9000 15.08840037 52545,6917.88,95.438,540.368,539.123,0.0
52602.0,STARLINK-4012,PAYLOAD,2023-04-23 21:31:32,15.08850095,0.0001026,53.2159,316.3156,85.7106,274.4003,1.4451e-05,-5.8e-07,0.0,0 STARLINK-4012,1 52602U 22052E   23113.89690915 -.00000058  00000-0  14451-4 0  9996,2 52602  53.2159 316.3156 0001026  85.7106 274.4003 15.08850095 53024,6917.85,95.437,540.424,539.005,0.0
52602.0,STARLINK-4012,PAYLOAD,2023-04-24 11:50:01,15.08839417,0.0001141,53.2166,313.6355,122.6965,237.4137,9.7797e-05,1.269e-05,0.0,0 STARLINK-4012,1 52602U 22052E   23114.49307459  .00001269  00000-0  97797-4 0  9999,2 52602  53.2166 313.6355 0001141 122.6965 237.4137 15.08839417 53117,6917.882,95.438,540.537,538.958,0.0
52602.0,STARLINK-4012,PAYLOAD,2023-04-24 18:11:34,15.08843702,0.0001521,53.2151,312.4503,70.1398,289.9758,0.000179,2.562e-05,0.0,0 STARLINK-4012,1 52602U 22052E   23114.75803515  .00002562  00000-0  17900-3 0  9996,2 52602  53.2151 312.4503 0001521  70.1398 289.9758 15.08843702 53159,6917.869,95.437,540.786,538.682,0.0
52602.0,STARLINK-4012,PAYLOAD,2023-04-26 13:06:59,15.08845049,0.0001167,53.2163,304.4198,78.4766,281.6357,9.2846e-05,1.19e-05,0.0,0 STARLINK-4012,1 52602U 22052E   23116.54652339  .00001190  00000-0  92846-4 0  9990,2 52602  53.2163 304.4198 0001167  78.4766 281.6357 15.08845049 53429,6917.865,95.437,540.537,538.923,0.0
52602.0,STARLINK-4012,PAYLOAD,2023-04-26 21:03:54,15.08852387,0.0001174,53.2163,302.9332,77.109,283.0033,0.00016654,2.364e-05,0.0,0 STARLINK-4012,1 52602U 22052E   23116.87771671  .00002364  00000-0  16654-3 0  9993,2 52602  53.2163 302.9332 0001174  77.1090 283.0033 15.08852387 53471,6917.843,95.437,540.52,538.895,0.0
52602.0,STARLINK-4012,PAYLOAD,2023-04-27 12:57:46,15.08855006,0.0001157,53.2157,299.9593,74.6806,285.4314,0.00032741,4.929e-05,0.0,0 STARLINK-4012,1 52602U 22052E   23117.54012448  .00004929  00000-0  32741-3 0  9992,2 52602  53.2157 299.9593 0001157  74.6806 285.4314 15.08855006 53576,6917.835,95.437,540.5,538.899,0.0
